K23RG8X 17.77  0.15 K24AH  96.57100    0.82451  320.79902    0.97384  0.0624997  0.20470433   2.8513555  0 E2025-C50    73   9 2002-2023 0.33 M-v 3Ek MPCLINUX   0000          2023 RX168         20230920
K23RA6G 17.91  0.15 K24AH 135.29539  318.39099   17.60241    7.59022  0.1421885  0.22103609   2.7091139  0 E2025-C22    74   8 2005-2025 0.46 M-v 3Ek MPCLINUX   0000          2023 RG106         20250202
K23T36F 17.51  0.15 K24AH 153.98074  244.15248   54.99037    2.75485  0.0370461  0.20363561   2.8613231  0 MPO894285    52   7 2007-2025 0.44 M-v 3Ek MPCLINUX   0000          2023 TF36          20250103
K24E12H 17.70  0.15 K24AH 350.23225  225.98534  358.91815    9.79755  0.0557502  0.17403415   3.1772135  0 E2024-UB5    44   7 2013-2024 0.51 M-v 3Ek MPCLINUX   0000          2024 EH12          20240330
K24S24Y 17.54  0.15 K24AH 352.70001  321.44651   73.46028    3.60821  0.1248892  0.17269909   3.1935669  0 MPO894319    59   7 2001-2024 0.52 M-v 3Ek MPCLINUX   0000          2024 SY24          20241122
K24T51P 19.30  0.15 K24AH 321.16360  201.47027  236.48330    0.77946  0.1616461  0.26704653   2.3882406  0 MPO894334    51   7 1998-2024 1.03 M-v 3Ek MPCLINUX   0000          2024 TP51          20241102
K24U55F 17.86  0.15 K24AH  94.36845  269.85308   24.05089   32.87095  0.1698590  0.23712279   2.5851586  0 E2025-B14    36   7 2003-2024 0.45 M-v 3Ek MPCLINUX   0000          2024 UF55          20241221
K24W46S 18.24  0.15 K24AH 332.50707   10.05789   85.99611    4.63399  0.1591775  0.21593503   2.7516127  0 E2025-B14    54   7 2010-2025 0.74 M-v 3Ek MPCLINUX   0000          2024 WS46          20250102
K24W50H 17.45  0.15 K24AH  16.89552  108.40832  278.47629   10.46036  0.1155292  0.17828431   3.1265158  0 E2025-C50    32   7 2013-2024 0.99 M-v 3Ek MPCLINUX   0000          2024 WH50          20241207
K23M15L 17.50  0.15 K24AH  74.01159   69.41734  289.29859   19.07124  0.2121394  0.20976207   2.8053351  0 E2025-B29    76   6 2005-2025 0.30 M-v 3Ek MPCLINUX   0000          2023 ML15          20250120
K23S50Z 18.60  0.15 K24AH  93.56400  178.54942  212.67735    7.47075  0.2690157  0.22786549   2.6547096  0 E2024-PG3    83   6 2001-2024 0.30 M-v 3Ek MPCLINUX   0000          2023 SZ50          20240107
K24A16X 17.60  0.15 K24AH 354.35029  232.27271  313.28315    4.68087  0.1162444  0.17612681   3.1519966  0 E2024-UB5    33   6 2008-2024 0.65 M-v 3Ek MPCLINUX   0000          2024 AX16          20240131
K24G10Z 18.26  0.15 K24AH 325.53598  207.98332   76.91307   10.08801  0.0338802  0.21953133   2.7214794  0 E2024-UB5    34   6 2015-2024 1.01 M-v 3Ek MPCLINUX   0000          2024 GZ10          20240508
K24G12W 17.48  0.15 K24AH   4.25065  223.59891   28.22533   28.37159  0.1291433  0.18228877   3.0805583  0 E2024-UD6    48   6 2013-2024 0.40 M-v 3Ek MPCLINUX   0000          2024 GW12          20240601
K24R65X 17.67  0.15 K24AH 336.03914   55.32612  338.95679    9.79339  0.1594568  0.17607667   3.1525949  0 MPO894304    43   6 1996-2024 0.86 M-v 3Ek MPCLINUX   0000          2024 RX65          20240930
K24S25J 17.82  0.15 K24AH  81.31534  271.03593   16.26701   20.54749  0.0733340  0.20948000   2.8078528  0 MPO872860    36   6 2010-2024 0.54 M-v 3Ek MPCLINUX   0000          2024 SJ25          20241009
K24U36S 18.40  0.15 K24AH 306.51875  327.06694  130.87292    6.54519  0.0898743  0.22363244   2.6881047  0 E2025-B54    36   6 2011-2024 0.56 M-v 3Ek Veres      0000          2024 US36          20241201
K24X27R 18.29  0.15 K24AH 348.77046   32.77654   46.22696    3.36873  0.0868106  0.18493293   3.0511242  0 E2025-B14    34   6 2013-2024 0.58 M-v 3Ek MPCLINUX   0000          2024 XR27          20241227
K23R19N 17.53  0.15 K24AH  54.00262    5.49511    2.67703   14.55638  0.0833272  0.18701690   3.0284156  0 E2024-UB5    28   5 2012-2023 0.90 M-v 3Ek MPCLINUX   0000          2023 RN19          20230917
K23T49O 17.84  0.15 K24AH  97.06074  201.62521  134.80479    4.43897  0.2052527  0.17918258   3.1160579  0 E2024-UB5    28   5 2012-2023 0.76 M-v 3Ek MPCLINUX   0000          2023 TO49          20231109
K23X12L 17.63  0.15 K24AH  73.72600   16.69464   40.55465   17.41382  0.0997275  0.19070737   2.9892189  0 E2024-UB5    26   5 2007-2023 0.61 M-v 3Ek MPCLINUX   0000          2023 XL12          20231213
K23X15L 18.46  0.15 K24AH  81.31719  321.00389  105.47741    7.98731  0.2824929  0.22782604   2.6550160  0 E2024-P10    25   5 2014-2023 0.97 M-v 3Ek MPCLINUX   0000          2023 XL15          20231216
K24G16Z 17.58  0.15 K24AH 350.29303  251.54511   20.58382   16.11145  0.1764956  0.18202883   3.0834904  0 E2024-UB5    37   5 2013-2024 0.58 M-v 3Ek MPCLINUX   0000          2024 GZ16          20240601
K24RA5O 19.23  0.15 K24AH  15.48639  217.42509  136.07517    7.16548  0.1261388  0.26928055   2.3750134  0 MPO872507    33   5 2013-2024 0.91 M-v 3Ek MPCLINUX   0000          2024 RO105         20241007
K24U29W 17.39  0.15 K24AH 320.27931   29.07251   64.63646   10.87982  0.0748266  0.19256461   2.9699678  0 E2025-B14    53   5 2014-2024 0.80 M-v 3Ek MPCLINUX   0000          2024 UW29          20241205
K24U56M 17.82  0.15 K24AH   0.54854  283.69825  125.75243   11.13743  0.1340451  0.18075736   3.0979333  0 E2025-B14    33   5 2013-2024 0.60 M-v 3Ek MPCLINUX   0000          2024 UM56          20241224
K23T40L 19.05  0.15 K24AH  51.42331  157.89309  280.09959    4.13370  0.0544359  0.27554711   2.3388667  1 E2024-UB5    44   5 2007-2023 0.62 M-v 3Ek MPCLINUX   0000          2023 TL40          20231105
K24E07Y 18.89  0.15 K24AH  99.48893   48.39405   65.37148    7.54137  0.1679691  0.24523811   2.5278079  1 E2024-UD6    31   5 2014-2024 1.00 M-v 3Ek MPCLINUX   0000          2024 EY7           20240411
K23T23T 17.80  0.15 K24AH 134.01926  227.29661   86.81300    3.47982  0.0547110  0.19884489   2.9070986  2 E2024-UB5    54   5 2008-2023 0.33 M-v 3Ek MPCLINUX   0000          2023 TT23          20231019
K23T96B 18.03  0.15 K24AH  76.90723  245.79254  154.23161   12.75257  0.0883234  0.21708563   2.7418814  0 E2024-UB5    38   4 2007-2023 0.38 M-v 3Ek MPCLINUX   0000          2023 TB96          20231109
K23X18B 17.48  0.15 K24AH  55.19366  341.63698   90.03293   12.61332  0.0539757  0.19036807   2.9927697  0 E2024-UH9    27   4 2012-2024 1.05 M-v 3Ek MPCLINUX   0000          2023 XB18          20240101
K24C12A 18.96  0.15 K24AH  78.50664  148.62750  347.26798    8.89004  0.1729073  0.26681813   2.3896034  0 E2024-UD6    31   4 2013-2024 0.63 M-v 3Ek MPCLINUX   0000          2024 CA12          20240306
K24G12F 18.32  0.15 K24AH   5.66546  348.25592  264.55249    2.31285  0.1469271  0.21721363   2.7408042  0 E2024-UD6    36   4 2012-2024 0.64 M-v 3Ek MPCLINUX   0000          2024 GF12          20240508
K24S24W 18.38  0.15 K24AH 345.64171  326.93779   76.42061    3.46775  0.1515907  0.22159306   2.7045724  0 MPO894319    55   4 2015-2024 0.92 M-v 3Ek MPCLINUX   0000          2024 SW24          20241122
K24T24T 19.71  0.15 K24AH 312.90479  237.10367  203.16362    4.36599  0.1251515  0.30002865   2.2098403  0 MPO894329    35   4 2011-2024 0.72 M-v 3Ek MPCLINUX   0000          2024 TT24          20241204
K23TE0L 18.61  0.15 K24AH  54.31324   70.70319  344.34528    5.94718  0.1372661  0.21733911   2.7397491  1 MPO792902    24   4 2011-2023 0.44 M-v 3Ek Veres      0000          2023 TL140         20231016
K23U73A 20.00  0.15 K24AH 113.31115   65.50926  335.94513    5.21949  0.1510715  0.31023191   2.1611176  1 E2024-UB5    38   4 2010-2023 0.57 M-v 3Ek MPCLINUX   0000          2023 UA73          20231208
K24S14Q 18.57  0.15 K24AH   3.24619  112.15899  259.14596    6.21557  0.2082161  0.22214782   2.7000679  1 E2025-C50    59   4 2011-2024 0.51 M-v 3Ek MPCLINUX   0000          2024 SQ14          20241103
K24U16S 18.48  0.15 K24AH 339.47810  222.89017  211.17798    6.49047  0.2153118  0.19884576   2.9070901  1 MPO894339    31   4 2009-2024 0.90 M-v 3Ek MPCLINUX   0000          2024 US16          20241205
K24W62M 18.54  0.15 K24AH 315.33361  261.12840  215.19206   12.18171  0.1798478  0.21354691   2.7720891  1 MPO886902    25   4 2010-2024 0.54 M-v 3Ek MPCLINUX   0000          2024 WM62          20241207
K24X38E 17.55  0.15 K24AH  49.08943  114.93093  251.33505   24.40203  0.1494701  0.17715869   3.1397453  1 E2025-B14    28   4 2007-2025 0.48 M-v 3Ek MPCLINUX   0000          2024 XE38          20250104
K24U31P 18.47  0.15 K24AH 340.05063  254.87522  171.17156    1.17446  0.1899083  0.19031502   2.9933259  2 E2025-B14    23   4 2015-2024 0.96 M-v 3Ek MPCLINUX   0000          2024 UP31          20241205
K24U32M 18.13  0.15 K24AH  25.76351  194.91898  176.62833    5.22034  0.0674432  0.21912582   2.7248359  3 E2025-B14    32   4 2006-2024 0.45 M-v 3Ek MPCLINUX   0000          2024 UM32          20241123
K23S20U 19.57  0.15 K24AH 117.94121   46.05645  318.00592    5.69083  0.1408434  0.28067274   2.3103045  1 E2024-UD6    35   3 2016-2023 0.94 M-v 3Ek MPCLINUX   0000          2023 SU20          20231103
K23S52X 17.56  0.15 K24AH  34.21796  175.10578  248.22300   20.31942  0.1842031  0.17286018   3.1915825  1 E2024-UH9    45   3 2012-2023 0.75 M-v 3Ek MPCLINUX   0000          2023 SX52          20231208
K23U18Z 19.61  0.15 K24AH 121.83699  162.73518  247.92481   18.04478  0.0874194  0.37493958   1.9047085  1 E2023-XG7    38   3 2010-2023 0.71 M-v 3Ek MPCLINUX   0006          2023 UZ18          20231209
K23V25H 19.11  0.15 K24AH  95.61730  288.57410   94.97991   13.65686  0.2870377  0.22544090   2.6737096  1 MPO793234    26   3 2014-2024 0.35 M-v 3Ek MPCLINUX   0000          2023 VH25          20240101
K23R51N 17.91  0.15 K24AH  78.41505  265.29679   87.26829    2.21717  0.2107170  0.18223692   3.0811426  2 MPO894277    45   3 2007-2025 0.40 M-v 3Ek MPCLINUX   0000          2023 RN51          20250103
K23RH8R 17.58  0.15 K24AH   2.71350   99.65738  332.06807   16.24197  0.1556584  0.17571181   3.1569575  2 MPO886333    30   3 2020-2024 0.72 M-v 3Ek MPCLINUX   0000          2023 RR178         20241226
